ONEWEB-0720             
1 55835U 23029AR  26073.73162612  .00000007  00000+0 -14416-4 0  9995
2 55835  87.9223 323.8024 0001865  90.3640 269.7706 13.19725054146389
ONEWEB-0537             
1 56046U 23043A   26073.88236292  .00000036  00000+0  59837-4 0  9995
2 56046  87.9012 247.5254 0001667  89.8501 270.2821 13.16593580146554
ONEWEB-0538             
1 56047U 23043B   26073.87603783  .00000041  00000+0  72720-4 0  9990
2 56047  87.9009 247.5289 0001916  93.6655 266.4695 13.16594820146564
ONEWEB-0546             
1 56048U 23043C   26073.86335180  .00000091  00000+0  20528-3 0  9996
2 56048  87.9011 247.5296 0001598  70.2489 289.8814 13.16604836146558
ONEWEB-0547             
1 56049U 23043D   26073.93118509  .00000070  00000+0  13876-3 0  9994
2 56049  87.9162 262.7630 0001806  94.6636 265.4705 13.21824890145775
ONEWEB-0548             
1 56050U 23043E   26073.88792016 -.00000047  00000+0 -15749-3 0  9998
2 56050  87.9006 247.5235 0001255 107.4255 252.7013 13.16593147146554
ONEWEB-0549             
1 56051U 23043F   26073.92377952  .00000057  00000+0  10616-3 0  9999
2 56051  87.9159 262.7768 0001911  93.6758 266.4594 13.21827803145771
ONEWEB-0550             
1 56052U 23043G   26073.91060992  .00000042  00000+0  69272-4 0  9999
2 56052  87.9163 262.7752 0001582  93.4145 266.7170 13.21824856145770
ONEWEB-0551             
1 56053U 23043H   26073.92020698  .00000040  00000+0  73464-4 0  9996
2 56053  87.8931 278.0497 0001971  91.6988 268.4369 13.15548790144003
ONEWEB-0552             
1 56054U 23043J   26073.90568101  .00000060  00000+0  11434-3 0  9991
2 56054  87.9160 262.7842 0001786 100.7964 259.3371 13.21826394145776
ONEWEB-0553             
1 56055U 23043K   26073.86970443  .00000047  00000+0  88062-4 0  9990
2 56055  87.9010 247.5305 0001420  85.9552 274.1741 13.16594240146568
ONEWEB-0554             
1 56056U 23043L   26073.93303363  .00000083  00000+0  18268-3 0  9990
2 56056  87.9007 247.5280 0001384 102.6293 257.4993 13.16594050146556
ONEWEB-0555             
1 56057U 23043M   26073.89503791  .00000022  00000+0  24415-4 0  9998
2 56057  87.9010 247.5205 0001464  77.6395 282.4900 13.16594278146559
ONEWEB-0557             
1 56058U 23043N   26073.90928433  .00000046  00000+0  86774-4 0  9997
2 56058  87.9007 247.5294 0000423  81.6809 278.4370 13.16593737146558
ONEWEB-0558             
1 56059U 23043P   26073.89909007  .00000126  00000+0  27286-3 0  9993
2 56059  87.9164 262.7783 0002213  92.8789 267.2599 13.21827500145782
ONEWEB-0559             
1 56060U 23043Q   26073.58478362  .00000011  00000+0 -57376-5 0  9995
2 56060  87.9164 262.8346 0001905  99.3942 260.7408 13.21824365145750
ONEWEB-0566             
1 56061U 23043R   26073.88098725  .00000059  00000+0  11150-3 0  9999
2 56061  87.9162 262.7746 0001991  96.9827 263.1534 13.21827105145776
