[{"OBJECT_NAME":"ONEWEB-0720","OBJECT_ID":"2023-029AR","EPOCH":"2026-03-14T17:33:32.496768","MEAN_MOTION":13.19725054,"ECCENTRICITY":0.00018657,"INCLINATION":87.9223,"RA_OF_ASC_NODE":323.8024,"ARG_OF_PERICENTER":90.364,"MEAN_ANOMALY":269.7706,"EPHEMERIS_TYPE":0,"CLASSIFICATION_TYPE":"U","NORAD_CAT_ID":55835,"ELEMENT_SET_NO":999,"REV_AT_EPOCH":14638,"BSTAR":-1.4416452e-5,"MEAN_MOTION_DOT":7.0e-8,"MEAN_MOTION_DDOT":0},{"OBJECT_NAME":"ONEWEB-0537","OBJECT_ID":"2023-043A","EPOCH":"2026-03-14T21:10:36.156288","MEAN_MOTION":13.1659358,"ECCENTRICITY":0.00016678,"INCLINATION":87.9012,"RA_OF_ASC_NODE":247.5254,"ARG_OF_PERICENTER":89.8501,"MEAN_ANOMALY":270.2821,"EPHEMERIS_TYPE":0,"CLASSIFICATION_TYPE":"U","NORAD_CAT_ID":56046,"ELEMENT_SET_NO":999,"REV_AT_EPOCH":14655,"BSTAR":5.9836547e-5,"MEAN_MOTION_DOT":3.6e-7,"MEAN_MOTION_DDOT":0},{"OBJECT_NAME":"ONEWEB-0538","OBJECT_ID":"2023-043B","EPOCH":"2026-03-14T21:01:29.668512","MEAN_MOTION":13.1659482,"ECCENTRICITY":0.00019167,"INCLINATION":87.9009,"RA_OF_ASC_NODE":247.5289,"ARG_OF_PERICENTER":93.6655,"MEAN_ANOMALY":266.4695,"EPHEMERIS_TYPE":0,"CLASSIFICATION_TYPE":"U","NORAD_CAT_ID":56047,"ELEMENT_SET_NO":999,"REV_AT_EPOCH":14656,"BSTAR":7.2719839e-5,"MEAN_MOTION_DOT":4.1e-7,"MEAN_MOTION_DDOT":0},{"OBJECT_NAME":"ONEWEB-0546","OBJECT_ID":"2023-043C","EPOCH":"2026-03-14T20:43:13.595520","MEAN_MOTION":13.16604836,"ECCENTRICITY":0.00015983,"INCLINATION":87.9011,"RA_OF_ASC_NODE":247.5296,"ARG_OF_PERICENTER":70.2489,"MEAN_ANOMALY":289.8814,"EPHEMERIS_TYPE":0,"CLASSIFICATION_TYPE":"U","NORAD_CAT_ID":56048,"ELEMENT_SET_NO":999,"REV_AT_EPOCH":14655,"BSTAR":0.0002052773,"MEAN_MOTION_DOT":9.1e-7,"MEAN_MOTION_DDOT":0},{"OBJECT_NAME":"ONEWEB-0547","OBJECT_ID":"2023-043D","EPOCH":"2026-03-14T22:20:54.391776","MEAN_MOTION":13.2182489,"ECCENTRICITY":0.0001806,"INCLINATION":87.9162,"RA_OF_ASC_NODE":262.763,"ARG_OF_PERICENTER":94.6636,"MEAN_ANOMALY":265.4705,"EPHEMERIS_TYPE":0,"CLASSIFICATION_TYPE":"U","NORAD_CAT_ID":56049,"ELEMENT_SET_NO":999,"REV_AT_EPOCH":14577,"BSTAR":0.00013876068,"MEAN_MOTION_DOT":7.0e-7,"MEAN_MOTION_DDOT":0},{"OBJECT_NAME":"ONEWEB-0548","OBJECT_ID":"2023-043E","EPOCH":"2026-03-14T21:18:36.301824","MEAN_MOTION":13.16593147,"ECCENTRICITY":0.0001255,"INCLINATION":87.9006,"RA_OF_ASC_NODE":247.5235,"ARG_OF_PERICENTER":107.4255,"MEAN_ANOMALY":252.7013,"EPHEMERIS_TYPE":0,"CLASSIFICATION_TYPE":"U","NORAD_CAT_ID":56050,"ELEMENT_SET_NO":999,"REV_AT_EPOCH":14655,"BSTAR":-0.00015749057,"MEAN_MOTION_DOT":-4.7e-7,"MEAN_MOTION_DDOT":0},{"OBJECT_NAME":"ONEWEB-0549","OBJECT_ID":"2023-043F","EPOCH":"2026-03-14T22:10:14.550528","MEAN_MOTION":13.21827803,"ECCENTRICITY":0.00019115,"INCLINATION":87.9159,"RA_OF_ASC_NODE":262.7768,"ARG_OF_PERICENTER":93.6758,"MEAN_ANOMALY":266.4594,"EPHEMERIS_TYPE":0,"CLASSIFICATION_TYPE":"U","NORAD_CAT_ID":56051,"ELEMENT_SET_NO":999,"REV_AT_EPOCH":14577,"BSTAR":0.00010615627,"MEAN_MOTION_DOT":5.7e-7,"MEAN_MOTION_DDOT":0},{"OBJECT_NAME":"ONEWEB-0550","OBJECT_ID":"2023-043G","EPOCH":"2026-03-14T21:51:16.697088","MEAN_MOTION":13.21824856,"ECCENTRICITY":0.00015821,"INCLINATION":87.9163,"RA_OF_ASC_NODE":262.7752,"ARG_OF_PERICENTER":93.4145,"MEAN_ANOMALY":266.717,"EPHEMERIS_TYPE":0,"CLASSIFICATION_TYPE":"U","NORAD_CAT_ID":56052,"ELEMENT_SET_NO":999,"REV_AT_EPOCH":14577,"BSTAR":6.927233e-5,"MEAN_MOTION_DOT":4.2e-7,"MEAN_MOTION_DDOT":0},{"OBJECT_NAME":"ONEWEB-0551","OBJECT_ID":"2023-043H","EPOCH":"2026-03-14T22:05:05.883072","MEAN_MOTION":13.1554879,"ECCENTRICITY":0.00019718,"INCLINATION":87.8931,"RA_OF_ASC_NODE":278.0497,"ARG_OF_PERICENTER":91.6988,"MEAN_ANOMALY":268.4369,"EPHEMERIS_TYPE":0,"CLASSIFICATION_TYPE":"U","NORAD_CAT_ID":56053,"ELEMENT_SET_NO":999,"REV_AT_EPOCH":14400,"BSTAR":7.3463883e-5,"MEAN_MOTION_DOT":4.0e-7,"MEAN_MOTION_DDOT":0},{"OBJECT_NAME":"ONEWEB-0552","OBJECT_ID":"2023-043J","EPOCH":"2026-03-14T21:44:10.839264","MEAN_MOTION":13.21826394,"ECCENTRICITY":0.00017863,"INCLINATION":87.916,"RA_OF_ASC_NODE":262.7842,"ARG_OF_PERICENTER":100.7964,"MEAN_ANOMALY":259.3371,"EPHEMERIS_TYPE":0,"CLASSIFICATION_TYPE":"U","NORAD_CAT_ID":56054,"ELEMENT_SET_NO":999,"REV_AT_EPOCH":14577,"BSTAR":0.00011433979,"MEAN_MOTION_DOT":6.0e-7,"MEAN_MOTION_DDOT":0},{"OBJECT_NAME":"ONEWEB-0553","OBJECT_ID":"2023-043K","EPOCH":"2026-03-14T20:52:22.462752","MEAN_MOTION":13.1659424,"ECCENTRICITY":0.00014201,"INCLINATION":87.901,"RA_OF_ASC_NODE":247.5305,"ARG_OF_PERICENTER":85.9552,"MEAN_ANOMALY":274.1741,"EPHEMERIS_TYPE":0,"CLASSIFICATION_TYPE":"U","NORAD_CAT_ID":56055,"ELEMENT_SET_NO":999,"REV_AT_EPOCH":14656,"BSTAR":8.8062162e-5,"MEAN_MOTION_DOT":4.7e-7,"MEAN_MOTION_DDOT":0},{"OBJECT_NAME":"ONEWEB-0554","OBJECT_ID":"2023-043L","EPOCH":"2026-03-14T22:23:34.105632","MEAN_MOTION":13.1659405,"ECCENTRICITY":0.00013847,"INCLINATION":87.9007,"RA_OF_ASC_NODE":247.528,"ARG_OF_PERICENTER":102.6293,"MEAN_ANOMALY":257.4993,"EPHEMERIS_TYPE":0,"CLASSIFICATION_TYPE":"U","NORAD_CAT_ID":56056,"ELEMENT_SET_NO":999,"REV_AT_EPOCH":14655,"BSTAR":0.00018268156,"MEAN_MOTION_DOT":8.3e-7,"MEAN_MOTION_DDOT":0},{"OBJECT_NAME":"ONEWEB-0555","OBJECT_ID":"2023-043M","EPOCH":"2026-03-14T21:28:51.275424","MEAN_MOTION":13.16594278,"ECCENTRICITY":0.00014644,"INCLINATION":87.901,"RA_OF_ASC_NODE":247.5205,"ARG_OF_PERICENTER":77.6395,"MEAN_ANOMALY":282.49,"EPHEMERIS_TYPE":0,"CLASSIFICATION_TYPE":"U","NORAD_CAT_ID":56057,"ELEMENT_SET_NO":999,"REV_AT_EPOCH":14655,"BSTAR":2.4415336e-5,"MEAN_MOTION_DOT":2.2e-7,"MEAN_MOTION_DDOT":0},{"OBJECT_NAME":"ONEWEB-0557","OBJECT_ID":"2023-043N","EPOCH":"2026-03-14T21:49:22.166112","MEAN_MOTION":13.16593737,"ECCENTRICITY":4.239e-5,"INCLINATION":87.9007,"RA_OF_ASC_NODE":247.5294,"ARG_OF_PERICENTER":81.6809,"MEAN_ANOMALY":278.437,"EPHEMERIS_TYPE":0,"CLASSIFICATION_TYPE":"U","NORAD_CAT_ID":56058,"ELEMENT_SET_NO":999,"REV_AT_EPOCH":14655,"BSTAR":8.6773662e-5,"MEAN_MOTION_DOT":4.6e-7,"MEAN_MOTION_DDOT":0},{"OBJECT_NAME":"ONEWEB-0558","OBJECT_ID":"2023-043P","EPOCH":"2026-03-14T21:34:41.382048","MEAN_MOTION":13.218275,"ECCENTRICITY":0.00022136,"INCLINATION":87.9164,"RA_OF_ASC_NODE":262.7783,"ARG_OF_PERICENTER":92.8789,"MEAN_ANOMALY":267.2599,"EPHEMERIS_TYPE":0,"CLASSIFICATION_TYPE":"U","NORAD_CAT_ID":56059,"ELEMENT_SET_NO":999,"REV_AT_EPOCH":14578,"BSTAR":0.00027286052,"MEAN_MOTION_DOT":1.26e-6,"MEAN_MOTION_DDOT":0},{"OBJECT_NAME":"ONEWEB-0559","OBJECT_ID":"2023-043Q","EPOCH":"2026-03-14T14:02:05.304768","MEAN_MOTION":13.21824365,"ECCENTRICITY":0.00019058,"INCLINATION":87.9164,"RA_OF_ASC_NODE":262.8346,"ARG_OF_PERICENTER":99.3942,"MEAN_ANOMALY":260.7408,"EPHEMERIS_TYPE":0,"CLASSIFICATION_TYPE":"U","NORAD_CAT_ID":56060,"ELEMENT_SET_NO":999,"REV_AT_EPOCH":14575,"BSTAR":-5.737582e-6,"MEAN_MOTION_DOT":1.1e-7,"MEAN_MOTION_DDOT":0},{"OBJECT_NAME":"ONEWEB-0566","OBJECT_ID":"2023-043R","EPOCH":"2026-03-14T21:08:37.298400","MEAN_MOTION":13.21827105,"ECCENTRICITY":0.00019914,"INCLINATION":87.9162,"RA_OF_ASC_NODE":262.7746,"ARG_OF_PERICENTER":96.9827,"MEAN_ANOMALY":263.1534,"EPHEMERIS_TYPE":0,"CLASSIFICATION_TYPE":"U","NORAD_CAT_ID":56061,"ELEMENT_SET_NO":999,"REV_AT_EPOCH":14577,"BSTAR":0.00011149917,"MEAN_MOTION_DOT":5.9e-7,"MEAN_MOTION_DDOT":0}]
